*******************************************************************************
Ephemeris / WWW_USER Mon Jul 15 19:02:51 2024 Pasadena, USA      / Horizons    
*******************************************************************************
Target body name: (2018 RC)                       {source: JPL#21}
Center body name: Earth (399)                     {source: DE441}
Center-site name: Gemini South Obs., Cerro Pachon
*******************************************************************************
Start time      : A.D. 2018-Nov-27 23:36:00.0000 UT      
Stop  time      : A.D. 2018-Nov-28 09:25:00.0000 UT      
Step-size       : 1 minutes
*******************************************************************************
Target pole/equ : undefined
Target radii    : undefined                                                    
Center geodetic : 289.2634, -30.2406227, 2.71233  {E-lon(deg),Lat(deg),Alt(km)}
Center cylindric: 289.2634,5517.21435,-3194.81213 {E-lon(deg),Dxy(km),Dz(km)}
Center pole/equ : ITRF93                          {East-longitude positive}
Center radii    : 6378.137, 6378.137, 6356.752 km {Equator_a, b, pole_c}       
Target primary  : Sun
Vis. interferer : MOON (R_eq= 1737.400) km        {source: DE441}
Rel. light bend : Sun                             {source: DE441}
Rel. lght bnd GM: 1.3271E+11 km^3/s^2                                          
Small-body perts: Yes                             {source: SB441-N16}
Atmos refraction: NO (AIRLESS)
RA format       : HMS
Time format     : CAL 
Calendar mode   : Mixed Julian/Gregorian
RTS-only print  : NO       
EOP file        : eop.240715.p241008                                           
EOP coverage    : DATA-BASED 1962-JAN-20 TO 2024-JUL-15. PREDICTS-> 2024-OCT-07
Units conversion: 1 au= 149597870.700 km, c= 299792.458 km/s, 1 day= 86400.0 s 
Table cut-offs 1: Elevation (-90.0deg=NO ),Airmass (>38.000=NO), Daylight (YES)
Table cut-offs 2: Solar elongation (  0.0,180.0=NO ),Local Hour Angle( 0.0=NO )
Table cut-offs 3: RA/DEC angular rate (     0.0=NO )                           
*******************************************************************************
Initial IAU76/J2000 heliocentric ecliptic osculating elements (au, days, deg.):
  EPOCH=  2458369.5 ! 2018-Sep-08.00 (TDB)         Residual RMS= .84866        
   EC= .2426621660028976   QR= .647471518312811    TP= 2458473.8617576878      
   OM= 346.8893436915528   W=  145.8737085184167   IN= 1.612045057594462       
  Equivalent ICRF heliocentric cartesian coordinates (au, au/d):
   X= 9.781363708094483E-01  Y=-2.377942828764822E-01  Z=-1.040448782093900E-01
  VX= 1.501011538102481E-03 VY= 1.393070215815854E-02 VZ= 6.509326736836346E-03
Asteroid physical parameters (km, seconds, rotational period in hours):        
   GM= n.a.                RAD= n.a.               ROTPER= .16548              
   H= 24.93                G= .150                 B-V= n.a.                   
                           ALBEDO= n.a.            STYP= n.a.                  
*******************************************************************************
 Date__(UT)__HR:MN     R.A._________(ICRF)_________DEC
******************************************************
$$SOE
 2018-Nov-28 01:39     13 45 16.820635 -07 35 10.04225
 2018-Nov-28 01:40     13 45 16.917780 -07 35 10.82457
 2018-Nov-28 01:41     13 45 17.014929 -07 35 11.60694
 2018-Nov-28 01:42     13 45 17.112081 -07 35 12.38936
 2018-Nov-28 01:43     13 45 17.209237 -07 35 13.17184
 2018-Nov-28 01:44     13 45 17.306397 -07 35 13.95438
 2018-Nov-28 01:45     13 45 17.403560 -07 35 14.73697
 2018-Nov-28 01:46     13 45 17.500727 -07 35 15.51961
 2018-Nov-28 01:47     13 45 17.597897 -07 35 16.30231
 2018-Nov-28 01:48     13 45 17.695070 -07 35 17.08506
 2018-Nov-28 01:49     13 45 17.792246 -07 35 17.86787
 2018-Nov-28 01:50     13 45 17.889425 -07 35 18.65073
 2018-Nov-28 01:51     13 45 17.986607 -07 35 19.43365
 2018-Nov-28 01:52     13 45 18.083792 -07 35 20.21662
 2018-Nov-28 01:53     13 45 18.180979 -07 35 20.99965
 2018-Nov-28 01:54     13 45 18.278169 -07 35 21.78273
 2018-Nov-28 01:55     13 45 18.375361 -07 35 22.56587
 2018-Nov-28 01:56     13 45 18.472555 -07 35 23.34906
 2018-Nov-28 01:57     13 45 18.569752 -07 35 24.13231
 2018-Nov-28 01:58     13 45 18.666951 -07 35 24.91561
 2018-Nov-28 01:59     13 45 18.764151 -07 35 25.69896
 2018-Nov-28 02:00     13 45 18.861354 -07 35 26.48237
 2018-Nov-28 02:01     13 45 18.958558 -07 35 27.26584
 2018-Nov-28 02:02     13 45 19.055764 -07 35 28.04936
 2018-Nov-28 02:03     13 45 19.152972 -07 35 28.83293
 2018-Nov-28 02:04     13 45 19.250181 -07 35 29.61656
 2018-Nov-28 02:05     13 45 19.347391 -07 35 30.40024
 2018-Nov-28 02:06     13 45 19.444603 -07 35 31.18398
 2018-Nov-28 02:07     13 45 19.541815 -07 35 31.96777
 2018-Nov-28 02:08     13 45 19.639029 -07 35 32.75162
 2018-Nov-28 02:09     13 45 19.736244 -07 35 33.53552
 2018-Nov-28 02:10     13 45 19.833459 -07 35 34.31948
 2018-Nov-28 02:11     13 45 19.930675 -07 35 35.10349
 2018-Nov-28 02:12     13 45 20.027892 -07 35 35.88756
 2018-Nov-28 02:13     13 45 20.125109 -07 35 36.67168
 2018-Nov-28 02:14     13 45 20.222327 -07 35 37.45586
 2018-Nov-28 02:15     13 45 20.319545 -07 35 38.24009
 2018-Nov-28 02:16     13 45 20.416763 -07 35 39.02438
 2018-Nov-28 02:17     13 45 20.513981 -07 35 39.80872
 2018-Nov-28 02:18     13 45 20.611199 -07 35 40.59311
 2018-Nov-28 02:19     13 45 20.708417 -07 35 41.37756
 2018-Nov-28 02:20     13 45 20.805634 -07 35 42.16207
 2018-Nov-28 02:21     13 45 20.902851 -07 35 42.94662
 2018-Nov-28 02:22     13 45 21.000068 -07 35 43.73124
 2018-Nov-28 02:23     13 45 21.097284 -07 35 44.51591
 2018-Nov-28 02:24     13 45 21.194500 -07 35 45.30063
 2018-Nov-28 02:25     13 45 21.291714 -07 35 46.08541
 2018-Nov-28 02:26     13 45 21.388928 -07 35 46.87024
 2018-Nov-28 02:27     13 45 21.486141 -07 35 47.65512
 2018-Nov-28 02:28     13 45 21.583353 -07 35 48.44006
 2018-Nov-28 02:29     13 45 21.680563 -07 35 49.22506
 2018-Nov-28 02:30     13 45 21.777772 -07 35 50.01011
 2018-Nov-28 02:31     13 45 21.874980 -07 35 50.79521
 2018-Nov-28 02:32     13 45 21.972186 -07 35 51.58037
 2018-Nov-28 02:33     13 45 22.069390 -07 35 52.36558
 2018-Nov-28 02:34     13 45 22.166593 -07 35 53.15085
 2018-Nov-28 02:35     13 45 22.263794 -07 35 53.93617
 2018-Nov-28 02:36     13 45 22.360993 -07 35 54.72155
 2018-Nov-28 02:37     13 45 22.458189 -07 35 55.50697
 2018-Nov-28 02:38     13 45 22.555384 -07 35 56.29246
 2018-Nov-28 02:39     13 45 22.652577 -07 35 57.07800
 2018-Nov-28 02:40     13 45 22.749766 -07 35 57.86359
 2018-Nov-28 02:41     13 45 22.846954 -07 35 58.64923
 2018-Nov-28 02:42     13 45 22.944139 -07 35 59.43493
 2018-Nov-28 02:43     13 45 23.041321 -07 36 00.22069
 2018-Nov-28 02:44     13 45 23.138500 -07 36 01.00650
 2018-Nov-28 02:45     13 45 23.235677 -07 36 01.79236
 2018-Nov-28 02:46     13 45 23.332850 -07 36 02.57827
 2018-Nov-28 02:47     13 45 23.430021 -07 36 03.36424
 2018-Nov-28 02:48     13 45 23.527188 -07 36 04.15027
 2018-Nov-28 02:49     13 45 23.624352 -07 36 04.93634
 2018-Nov-28 02:50     13 45 23.721512 -07 36 05.72248
 2018-Nov-28 02:51     13 45 23.818669 -07 36 06.50866
 2018-Nov-28 02:52     13 45 23.915822 -07 36 07.29490
 2018-Nov-28 02:53     13 45 24.012971 -07 36 08.08119
 2018-Nov-28 02:54     13 45 24.110117 -07 36 08.86754
 2018-Nov-28 02:55     13 45 24.207259 -07 36 09.65394
 2018-Nov-28 02:56     13 45 24.304396 -07 36 10.44039
 2018-Nov-28 02:57     13 45 24.401529 -07 36 11.22689
 2018-Nov-28 02:58     13 45 24.498659 -07 36 12.01345
 2018-Nov-28 02:59     13 45 24.595783 -07 36 12.80006
 2018-Nov-28 03:00     13 45 24.692904 -07 36 13.58673
 2018-Nov-28 03:01     13 45 24.790019 -07 36 14.37345
 2018-Nov-28 03:02     13 45 24.887130 -07 36 15.16022
 2018-Nov-28 03:03     13 45 24.984237 -07 36 15.94705
 2018-Nov-28 03:04     13 45 25.081338 -07 36 16.73392
 2018-Nov-28 03:05     13 45 25.178434 -07 36 17.52086
 2018-Nov-28 03:06     13 45 25.275526 -07 36 18.30784
 2018-Nov-28 03:07     13 45 25.372612 -07 36 19.09488
 2018-Nov-28 03:08     13 45 25.469692 -07 36 19.88197
 2018-Nov-28 03:09     13 45 25.566768 -07 36 20.66911
 2018-Nov-28 03:10     13 45 25.663838 -07 36 21.45630
 2018-Nov-28 03:11     13 45 25.760902 -07 36 22.24355
 2018-Nov-28 03:12     13 45 25.857961 -07 36 23.03085
 2018-Nov-28 03:13     13 45 25.955013 -07 36 23.81820
 2018-Nov-28 03:14     13 45 26.052060 -07 36 24.60561
 2018-Nov-28 03:15     13 45 26.149101 -07 36 25.39307
 2018-Nov-28 03:16     13 45 26.246136 -07 36 26.18058
 2018-Nov-28 03:17     13 45 26.343164 -07 36 26.96814
 2018-Nov-28 03:18     13 45 26.440187 -07 36 27.75575
 2018-Nov-28 03:19     13 45 26.537203 -07 36 28.54342
 2018-Nov-28 03:20     13 45 26.634212 -07 36 29.33114
 2018-Nov-28 03:21     13 45 26.731215 -07 36 30.11891
 2018-Nov-28 03:22     13 45 26.828211 -07 36 30.90673
 2018-Nov-28 03:23     13 45 26.925200 -07 36 31.69460
 2018-Nov-28 03:24     13 45 27.022182 -07 36 32.48253
 2018-Nov-28 03:25     13 45 27.119157 -07 36 33.27050
 2018-Nov-28 03:26     13 45 27.216125 -07 36 34.05853
 2018-Nov-28 03:27     13 45 27.313086 -07 36 34.84661
 2018-Nov-28 03:28     13 45 27.410040 -07 36 35.63474
 2018-Nov-28 03:29     13 45 27.506986 -07 36 36.42293
 2018-Nov-28 03:30     13 45 27.603925 -07 36 37.21116
 2018-Nov-28 03:31     13 45 27.700856 -07 36 37.99945
 2018-Nov-28 03:32     13 45 27.797779 -07 36 38.78778
 2018-Nov-28 03:33     13 45 27.894695 -07 36 39.57617
 2018-Nov-28 03:34     13 45 27.991603 -07 36 40.36461
 2018-Nov-28 03:35     13 45 28.088502 -07 36 41.15310
 2018-Nov-28 03:36     13 45 28.185394 -07 36 41.94164
 2018-Nov-28 03:37     13 45 28.282277 -07 36 42.73023
 2018-Nov-28 03:38     13 45 28.379152 -07 36 43.51887
 2018-Nov-28 03:39     13 45 28.476019 -07 36 44.30756
 2018-Nov-28 03:40     13 45 28.572877 -07 36 45.09630
 2018-Nov-28 03:41     13 45 28.669727 -07 36 45.88510
